STARLINK-1815
1 16713C 20073AV  21326.14375688  .00004085  00000-0  27372-3 0  3264
2 16713  53.0549  83.1079 0001281  77.1059 147.7526 15.06391086    10
